{"spkid": "50689369", "covariance": {"epoch": "2457533.5", "elements": [{"title": "eccentricity", "value": ".522602678935124", "units": null, "sigma": 2.94240250083002e-08, "name": "e", "label": "e"}, {"label": "q", "name": "q", "sigma": 1.24780683604566e-07, "units": "au", "value": "1.017166081859777", "title": "perihelion distance"}, {"value": "2458007.720271868439", "title": "time of perihelion passage", "units": "TDB", "sigma": 0.000163072095444336, "name": "tp", "label": "tp"}, {"label": "node", "units": "deg", "title": "longitude of the ascending node", "value": "158.6214072949242", "sigma": 1.83861402227312e-05, "name": "om"}, {"name": "w", "sigma": 3.68827217233458e-05, "units": "deg", "title": "argument of perihelion", "value": "141.6818024093565", "label": "peri"}, {"label": "i", "title": "inclination", "value": "7.802502523653831", "units": "deg", "name": "i", "sigma": 7.03335896547771e-06}], "data": [["8.65773247689073E-16", "-3.167601246488847E-15", "-2.659378768298871E-12", "-8.571928549073663E-15", "-5.829325142312866E-13", "-5.18652832190718E-14"], ["-3.167601246488847E-15", "1.557021900082276E-14", "1.828059590588795E-11", "5.024191565458737E-13", "3.780567659983706E-12", "3.482545049841219E-13"], ["-2.659378768298871E-12", "1.828059590588795E-11", "2.659250831260653E-8", "1.065600614755025E-9", "5.353310872830854E-9", "5.027205249432114E-10"], ["-8.571928549073663E-15", "5.024191565458737E-13", "1.065600614755025E-9", "3.380501522899327E-10", "-5.789364211788178E-11", "6.263844295088409E-11"], ["-5.829325142312866E-13", "3.780567659983706E-12", "5.353310872830854E-9", "-5.789364211788178E-11", "1.360335161721766E-9", "5.7728258677183E-11"], ["-5.18652832190718E-14", "3.482545049841219E-13", "5.027205249432114E-10", "6.263844295088409E-11", "5.7728258677183E-11", "4.946813833726574E-11"]], "labels": ["e", "q", "tp", "node", "peri", "i"]}, "elements": [{"label": "e", "units": null, "title": "eccentricity", "value": ".5240694168946071", "sigma": "2.974E-8", "name": "e"}, {"label": "a", "sigma": "1.6237E-7", "name": "a", "title": "semi-major axis", "value": "2.129307004092388", "units": "au"}, {"label": "q", "title": "perihelion distance", "value": "1.013402324068088", "units": "au", "sigma": "1.2574E-7", "name": "q"}, {"name": "i", "sigma": "7.053E-6", "title": "inclination; angle with respect to x-y ecliptic plane", "value": "7.823377758258615", "units": "deg", "label": "i"}, {"value": "158.3910059813268", "title": "longitude of the ascending node", "units": "deg", "sigma": "1.8359E-5", "name": "om", "label": "node"}, {"sigma": "3.6813E-5", "name": "w", "title": "argument of perihelion", "value": "141.9646805667643", "units": "deg", "label": "peri"}, {"label": "M", "name": "ma", "sigma": ".00016711", "units": "deg", "title": "mean anomaly", "value": "291.3048494664857"}, {"label": "tp", "value": "2461417.060591833311", "title": "time of perihelion passage", "units": "TDB", "sigma": ".00055158", "name": "tp"}, {"label": "period", "name": "per", "sigma": ".00012981", "title": "sidereal orbital period", "value": "1134.895439554452", "units": "d"}, {"label": "n", "units": "deg/d", "title": "mean motion", "value": ".3172098392970302", "name": "n", "sigma": "3.6283E-8"}, {"title": "aphelion distance", "value": "3.245211684116689", "units": "au", "sigma": "2.4746E-7", "name": "ad", "label": "Q"}], "epoch": "2461200.5"}